NORAD_CAT_ID,OBJECT_NAME,OBJECT_TYPE,EPOCH,MEAN_MOTION,ECCENTRICITY,INCLINATION,RA_OF_ASC_NODE,ARG_OF_PERICENTER,MEAN_ANOMALY,BSTAR,MEAN_MOTION_DOT,MEAN_MOTION_DDOT,TLE_LINE0,TLE_LINE1,TLE_LINE2,SEMIMAJOR_AXIS,PERIOD,APOGEE,PERIGEE,DECAYED
52621.0,STARLINK-3984,PAYLOAD,2024-03-26 15:49:53,15.08831099,0.0001393,53.2179,230.0329,83.8177,276.2973,0.00017325,2.47e-05,0.0,0 STARLINK-3984,1 52621U 22052Z   24086.65964195  .00002470  00000-0  17325-3 0  9996,2 52621  53.2179 230.0329 0001393  83.8177 276.2973 15.08831099103727,6917.908,95.438,540.736,538.809,0.0
52621.0,STARLINK-3984,PAYLOAD,2024-03-27 14:05:17,15.08825015,0.0001147,53.2185,225.8694,95.2532,264.8591,0.00018951,2.728e-05,0.0,0 STARLINK-3984,1 52621U 22052Z   24087.58700607  .00002728  00000-0  18951-3 0  9997,2 52621  53.2185 225.8694 0001147  95.2532 264.8591 15.08825015103483,6917.926,95.439,540.585,538.998,0.0
52621.0,STARLINK-3984,PAYLOAD,2024-03-27 15:40:40,15.08826778,0.0001142,53.2187,225.5723,97.6888,262.4234,0.00020865,3.033e-05,0.0,0 STARLINK-3984,1 52621U 22052Z   24087.65324491  .00003033  00000-0  20865-3 0  9995,2 52621  53.2187 225.5723 0001142  97.6888 262.4234 15.08826778103496,6917.921,95.438,540.576,538.996,0.0
52621.0,STARLINK-3984,PAYLOAD,2024-03-28 12:20:40,15.08835255,0.0001573,53.2188,221.7063,92.0296,268.0876,0.00017008,2.42e-05,0.0,0 STARLINK-3984,1 52621U 22052Z   24088.51436315  .00002420  00000-0  17008-3 0  9994,2 52621  53.2188 221.7063 0001573  92.0296 268.0876 15.08835255104004,6917.895,95.438,540.848,538.672,0.0
52621.0,STARLINK-3984,PAYLOAD,2024-03-29 12:11:26,15.08899346,0.0001904,53.2183,217.2451,79.7683,280.3524,-0.00090952,-0.00014758,0.0,0 STARLINK-3984,1 52621U 22052Z   24089.50794440 -.00014758  00000-0 -90952-3 0  9998,2 52621  53.2183 217.2451 0001904  79.7683 280.3524 15.08899346104154,6917.699,95.434,540.881,538.247,0.0
52621.0,STARLINK-3984,PAYLOAD,2024-03-29 15:22:14,15.08838585,0.000134,53.2182,216.6522,89.0889,271.0256,9.2115e-05,1.178e-05,0.0,0 STARLINK-3984,1 52621U 22052Z   24089.64044575  .00001178  00000-0  92115-4 0  9994,2 52621  53.2182 216.6522 0001340  89.0889 271.0256 15.08838585103797,6917.885,95.438,540.677,538.823,0.0
52621.0,STARLINK-3984,PAYLOAD,2024-03-30 00:54:32,15.08849697,0.0001522,53.2186,214.8677,90.7951,269.3215,0.00012384,1.684e-05,0.0,0 STARLINK-3984,1 52621U 22052Z   24090.03787739  .00001684  00000-0  12384-3 0  9996,2 52621  53.2186 214.8677 0001522  90.7951 269.3215 15.08849697104234,6917.851,95.437,540.769,538.663,0.0
52621.0,STARLINK-3984,PAYLOAD,2024-03-30 12:02:16,15.08827488,0.0001634,53.2206,212.7898,111.5889,248.5277,-4.2343e-06,-3.55e-06,0.0,0 STARLINK-3984,1 52621U 22052Z   24090.50157552 -.00000355  00000-0 -42343-5 0  9998,2 52621  53.2206 212.7898 0001634 111.5889 248.5277 15.08827488104304,6917.919,95.438,540.914,538.653,0.0
52621.0,STARLINK-3984,PAYLOAD,2024-03-30 15:13:02,15.08831505,0.0001261,53.2174,212.1934,97.0938,263.0198,3.653e-05,2.93e-06,0.0,0 STARLINK-3984,1 52621U 22052Z   24090.63405271  .00000293  00000-0  36530-4 0  9995,2 52621  53.2174 212.1934 0001261  97.0938 263.0198 15.08831505103940,6917.906,95.438,540.644,538.899,0.0
52621.0,STARLINK-3984,PAYLOAD,2024-03-31 00:45:20,15.08842356,0.0001234,53.2186,210.4078,89.0147,271.0986,0.0001356,1.871e-05,0.0,0 STARLINK-3984,1 52621U 22052Z   24091.03148433  .00001871  00000-0  13560-3 0  9994,2 52621  53.2186 210.4078 0001234  89.0147 271.0986 15.08842356104385,6917.873,95.437,540.592,538.885,0.0
52621.0,STARLINK-3984,PAYLOAD,2024-03-31 11:53:02,15.08834707,0.0001592,53.2193,208.3301,102.6506,257.4664,7.1016e-05,8.42e-06,0.0,0 STARLINK-3984,1 52621U 22052Z   24091.49517167  .00000842  00000-0  71016-4 0  9996,2 52621  53.2193 208.3301 0001592 102.6506 257.4664 15.08834707104456,6917.897,95.438,540.863,538.66,0.0
52621.0,STARLINK-3984,PAYLOAD,2024-03-31 13:28:25,15.08835094,0.0001559,53.2197,208.0333,103.5679,256.5487,7.2824e-05,8.71e-06,0.0,0 STARLINK-3984,1 52621U 22052Z   24091.56141154  .00000871  00000-0  72824-4 0  9993,2 52621  53.2197 208.0333 0001559 103.5679 256.5487 15.08835094104088,6917.895,95.438,540.839,538.682,0.0
52621.0,STARLINK-3984,PAYLOAD,2024-03-31 15:03:49,15.0883464,0.0001665,53.2193,207.7351,101.6521,258.4658,9.1988e-05,1.176e-05,0.0,0 STARLINK-3984,1 52621U 22052Z   24091.62765148  .00001176  00000-0  91988-4 0  9996,2 52621  53.2193 207.7351 0001665 101.6521 258.4658 15.08834640104091,6917.897,95.438,540.914,538.61,0.0
52621.0,STARLINK-3984,PAYLOAD,2024-04-01 00:36:06,15.08852636,0.0002039,53.2185,205.9481,86.4504,273.6721,0.00021036,3.062e-05,0.0,0 STARLINK-3984,1 52621U 22052Z   24092.02507609  .00003062  00000-0  21036-3 0  9999,2 52621  53.2185 205.9481 0002039  86.4504 273.6721 15.08852636104537,6917.842,95.437,541.117,538.296,0.0
52621.0,STARLINK-3984,PAYLOAD,2024-04-01 11:43:50,15.08821189,0.0001335,53.219,203.8706,93.4029,266.7116,6.871e-05,8.05e-06,0.0,0 STARLINK-3984,1 52621U 22052Z   24092.48878107  .00000805  00000-0  68710-4 0  9996,2 52621  53.2190 203.8706 0001335  93.4029 266.7116 15.08821189104606,6917.938,95.439,540.726,538.879,0.0
52621.0,STARLINK-3984,PAYLOAD,2024-04-01 16:29:59,15.08834689,0.0001369,53.2186,202.975,79.2323,280.8823,0.00010662,1.409e-05,0.0,0 STARLINK-3984,1 52621U 22052Z   24092.68749378  .00001409  00000-0  10662-3 0  9998,2 52621  53.2186 202.9750 0001369  79.2323 280.8823 15.08834689104630,6917.897,95.438,540.709,538.815,0.0
52621.0,STARLINK-3984,PAYLOAD,2024-04-02 00:26:54,15.08841889,0.000168,53.2184,201.4892,84.2482,275.8701,9.5703e-05,1.235e-05,0.0,0 STARLINK-3984,1 52621U 22052Z   24093.01869043  .00001235  00000-0  95703-4 0  9995,2 52621  53.2184 201.4892 0001680  84.2482 275.8701 15.08841889104681,6917.875,95.437,540.902,538.577,0.0
52621.0,STARLINK-3984,PAYLOAD,2024-04-02 13:10:00,15.0883059,0.0001281,53.2185,199.1115,85.7277,274.3861,3.2901e-05,2.36e-06,0.0,0 STARLINK-3984,1 52621U 22052Z   24093.54862056  .00000236  00000-0  32901-4 0  9991,2 52621  53.2185 199.1115 0001281  85.7277 274.3861 15.08830590104765,6917.909,95.438,540.66,538.888,0.0
52621.0,STARLINK-3984,PAYLOAD,2024-04-02 14:45:23,15.08839331,0.0001364,53.2171,198.8127,72.9192,287.195,3.3726e-05,2.49e-06,0.0,0 STARLINK-3984,1 52621U 22052Z   24093.61485478  .00000249  00000-0  33726-4 0  9998,2 52621  53.2171 198.8127 0001364  72.9192 287.1950 15.08839331104779,6917.882,95.438,540.691,538.804,0.0
52621.0,STARLINK-3984,PAYLOAD,2024-04-03 00:17:41,15.08853401,0.0001375,53.2176,197.0287,73.9886,286.1257,4.3595e-05,4.06e-06,0.0,0 STARLINK-3984,1 52621U 22052Z   24094.01228394  .00000406  00000-0  43595-4 0  9995,2 52621  53.2176 197.0287 0001375  73.9886 286.1257 15.08853401104835,6917.839,95.437,540.656,538.753,0.0
52621.0,STARLINK-3984,PAYLOAD,2024-04-03 13:00:47,15.08838704,0.0001337,53.218,194.6481,88.6362,271.4784,0.00029504,4.411e-05,0.0,0 STARLINK-3984,1 52621U 22052Z   24094.54221305  .00004411  00000-0  29504-3 0  9991,2 52621  53.2180 194.6481 0001337  88.6362 271.4784 15.08838704104919,6917.884,95.438,540.674,538.824,0.0
52621.0,STARLINK-3984,PAYLOAD,2024-04-03 16:11:33,15.08843811,0.0001367,53.218,194.0531,95.5452,264.5696,0.00017334,2.472e-05,0.0,0 STARLINK-3984,1 52621U 22052Z   24094.67468981  .00002472  00000-0  17334-3 0  9991,2 52621  53.2180 194.0531 0001367  95.5452 264.5696 15.08843811104559,6917.869,95.437,540.679,538.788,0.0
52621.0,STARLINK-3984,PAYLOAD,2024-04-04 12:51:34,15.08838193,0.0001297,53.2172,190.1871,93.1372,266.9769,6.0951e-05,6.82e-06,0.0,0 STARLINK-3984,1 52621U 22052Z   24095.53581296  .00000682  00000-0  60951-4 0  9997,2 52621  53.2172 190.1871 0001297  93.1372 266.9769 15.08838193104689,6917.886,95.438,540.648,538.854,0.0
52621.0,STARLINK-3984,PAYLOAD,2024-04-05 12:42:20,15.08847161,0.000127,53.2165,185.7268,92.5374,267.5763,0.00012875,1.762e-05,0.0,0 STARLINK-3984,1 52621U 22052Z   24096.52940355  .00001762  00000-0  12875-3 0  9993,2 52621  53.2165 185.7268 0001270  92.5374 267.5763 15.08847161105213,6917.859,95.437,540.602,538.845,0.0
52621.0,STARLINK-3984,PAYLOAD,2024-04-06 12:33:08,15.08836388,0.0001308,53.217,181.2674,89.4394,270.6748,5.3115e-05,5.57e-06,0.0,0 STARLINK-3984,1 52621U 22052Z   24097.52301189  .00000557  00000-0  53115-4 0  9994,2 52621  53.2170 181.2674 0001308  89.4394 270.6748 15.08836388105363,6917.891,95.438,540.661,538.852,0.0
52621.0,STARLINK-3984,PAYLOAD,2024-04-06 22:05:26,15.0884065,0.0001453,53.218,179.484,91.5581,268.5578,4.4469e-05,4.2e-06,0.0,0 STARLINK-3984,1 52621U 22052Z   24097.92044939  .00000420  00000-0  44469-4 0  9996,2 52621  53.2180 179.4840 0001453  91.5581 268.5578 15.08840650105040,6917.878,95.438,540.749,538.738,0.0
52621.0,STARLINK-3984,PAYLOAD,2024-04-07 09:13:09,15.08831668,0.0001683,53.2206,177.4081,103.0273,257.0907,-3.0515e-05,-7.74e-06,0.0,0 STARLINK-3984,1 52621U 22052Z   24098.38413962 -.00000774  00000-0 -30515-4 0  9994,2 52621  53.2206 177.4081 0001683 103.0273 257.0907 15.08831668105493,6917.906,95.438,540.935,538.607,0.0
52621.0,STARLINK-3984,PAYLOAD,2024-04-07 12:23:55,15.08832383,0.0001825,53.219,176.8107,103.4007,256.7188,-3.953e-05,-9.17e-06,0.0,0 STARLINK-3984,1 52621U 22052Z   24098.51661940 -.00000917  00000-0 -39530-4 0  9995,2 52621  53.2190 176.8107 0001825 103.4007 256.7188 15.08832383105137,6917.904,95.438,541.031,538.506,0.0
52621.0,STARLINK-3984,PAYLOAD,2024-04-07 21:56:14,15.08836541,0.0001297,53.2195,175.0255,93.845,266.2691,2.6133e-05,1.28e-06,0.0,0 STARLINK-3984,1 52621U 22052Z   24098.91405643  .00000128  00000-0  26133-4 0  9992,2 52621  53.2195 175.0255 0001297  93.8450 266.2691 15.08836541105195,6917.891,95.438,540.653,538.859,0.0
52621.0,STARLINK-3984,PAYLOAD,2024-04-08 04:17:47,15.08833202,0.000171,53.2196,173.8355,97.5965,262.5221,0.00013071,1.792e-05,0.0,0 STARLINK-3984,1 52621U 22052Z   24099.17901650  .00001792  00000-0  13071-3 0  9994,2 52621  53.2196 173.8355 0001710  97.5965 262.5221 15.08833202105611,6917.901,95.438,540.949,538.583,0.0
